{"type":"FeatureCollection","features":[{"type":"Feature","id":15,"geometry":{"type":"Polygon","coordinates":[[[151.426422,-32.031664],[151.427094,-32.031979],[151.428002,-32.032117],[151.428373,-32.032085],[151.429343,-32.031709],[151.431328,-32.031436],[151.43365,-32.031285],[151.434056,-32.031082],[151.434422,-32.030735],[151.435025,-32.030129],[151.435395,-32.029556],[151.435964,-32.029094],[151.436391,-32.028865],[151.43663,-32.028525],[151.436627,-32.028092],[151.436451,-32.02781],[151.435202,-32.027155],[151.4344,-32.027045],[151.433827,-32.027101],[151.432151,-32.027884],[151.430808,-32.028408],[151.428549,-32.028624],[151.427747,-32.029083],[151.427217,-32.030348],[151.426582,-32.030981],[151.426321,-32.031383],[151.426254,-32.031581],[151.426422,-32.031664]]]},"properties":{"OBJECTID":15,"FireType":2,"FireName":"","FireNo":"76/160","FireYear":197677,"Label":"1976-77 Prescribed Burn","StartDate":null,"EndDate":null,"Intensity":null,"AreaHa":31.35595997,"PerimeterM":2443.51416089,"OFHObjMet":null,"ObjNotMet":null,"NPWSBranch":"HCCO","NPWSArea":"BARR","VerDate":1788739200000,"Shape.STArea()":2.9934902720257847e-05,"Shape.STLength()":0.024745009367896306}},{"type":"Feature","id":16,"geometry":{"type":"Polygon","coordinates":[[[151.43642,-32.017825],[151.436176,-32.017822],[151.434867,-32.018229],[151.43272,-32.018753],[151.431375,-32.018736],[151.429995,-32.01834],[151.428373,-32.018438],[151.427637,-32.018807],[151.427512,-32.019897],[151.427718,-32.020215],[151.428765,-32.02095],[151.429202,-32.021379],[151.430386,-32.021484],[151.432498,-32.021186],[151.433855,-32.021699],[151.434353,-32.021669],[151.435689,-32.020341],[151.436289,-32.019257],[151.436479,-32.018051],[151.43642,-32.017825]]]},"properties":{"OBJECTID":16,"FireType":2,"FireName":"","FireNo":"76/160","FireYear":197677,"Label":"1976-77 Prescribed Burn","StartDate":null,"EndDate":null,"Intensity":null,"AreaHa":24.43671901,"PerimeterM":2209.58497773,"OFHObjMet":null,"ObjNotMet":null,"NPWSBranch":"HCCO","NPWSArea":"BARR","VerDate":1788739200000,"Shape.STArea()":2.3326779733330156e-05,"Shape.STLength()":0.02229100955498583}},{"type":"Feature","id":22,"geometry":{"type":"Polygon","coordinates":[[[151.435802,-32.027396],[151.435914,-32.027623],[151.436378,-32.027791],[151.436522,-32.027992],[151.436591,-32.028335],[151.436318,-32.028792],[151.436093,-32.02897],[151.435582,-32.029144],[151.434648,-32.030494],[151.433715,-32.031213],[151.433279,-32.031298],[151.433148,-32.031504],[151.433274,-32.031614],[151.434828,-32.031723],[151.436915,-32.031686],[151.437795,-32.031588],[151.43749,-32.031503],[151.437313,-32.031312],[151.437212,-32.031049],[151.437417,-32.03079],[151.437717,-32.030622],[151.437989,-32.030788],[151.43829,-32.031162],[151.438626,-32.031328],[151.440244,-32.031465],[151.441664,-32.031374],[151.441963,-32.031225],[151.441859,-32.031115],[151.441473,-32.02891],[151.441068,-32.028454],[151.440351,-32.027002],[151.439976,-32.026032],[151.439867,-32.025543],[151.43956,-32.024917],[151.439453,-32.024375],[151.438951,-32.024035],[151.438308,-32.023864],[151.437797,-32.023984],[151.436995,-32.024471],[151.436565,-32.024871],[151.436162,-32.025534],[151.435962,-32.026081],[151.435802,-32.027396]]]},"properties":{"OBJECTID":22,"FireType":2,"FireName":"","FireNo":"77/160","FireYear":197778,"Label":"1977-78 Prescribed Burn","StartDate":null,"EndDate":null,"Intensity":null,"AreaHa":38.77164386,"PerimeterM":3107.10772337,"OFHObjMet":null,"ObjNotMet":null,"NPWSBranch":"HCCO","NPWSArea":"BARR","VerDate":1788739200000,"Shape.STArea()":3.701403023534609e-05,"Shape.STLength()":0.03042521969958591}},{"type":"Feature","id":23,"geometry":{"type":"Polygon","coordinates":[[[151.436334,-32.039066],[151.436937,-32.039119],[151.43781,-32.039463],[151.438727,-32.040368],[151.439479,-32.041595],[151.439892,-32.043431],[151.439895,-32.043882],[151.440333,-32.04368],[151.440936,-32.043074],[151.4411,-32.042787],[151.441093,-32.041957],[151.441429,-32.04087],[151.441731,-32.040558],[151.442757,-32.038748],[151.443027,-32.038463],[151.44338,-32.036366],[151.443309,-32.036139],[151.442732,-32.035826],[151.441616,-32.034838],[151.441308,-32.033661],[151.440963,-32.032773],[151.440427,-32.032523],[151.439789,-32.032695],[151.439415,-32.033503],[151.438799,-32.036111],[151.43799,-32.036345],[151.43752,-32.036573],[151.437026,-32.036973],[151.436334,-32.039066]]]},"properties":{"OBJECTID":23,"FireType":2,"FireName":"","FireNo":"77/160","FireYear":197778,"Label":"1977-78 Prescribed Burn","StartDate":null,"EndDate":null,"Intensity":null,"AreaHa":39.50272558,"PerimeterM":3056.03848571,"OFHObjMet":null,"ObjNotMet":null,"NPWSBranch":"HCCO","NPWSArea":"BARR","VerDate":1788739200000,"Shape.STArea()":3.771575970280958e-05,"Shape.STLength()":0.02890023504519361}},{"type":"Feature","id":24,"geometry":{"type":"Polygon","coordinates":[[[151.455258,-32.016964],[151.454486,-32.016937],[151.453642,-32.017404],[151.451764,-32.018238],[151.450896,-32.018877],[151.45026,-32.019537],[151.44966,-32.019999],[151.44912,-32.020605],[151.448492,-32.022032],[151.447233,-32.023902],[151.446792,-32.024275],[151.446131,-32.025169],[151.445824,-32.025824],[151.445764,-32.026256],[151.445426,-32.026802],[151.445471,-32.02729],[151.446552,-32.027826],[151.446918,-32.02811],[151.447529,-32.028307],[151.44864,-32.02833],[151.449277,-32.028239],[151.452146,-32.02831],[151.454228,-32.028498],[151.455235,-32.028438],[151.455574,-32.02781],[151.45563,-32.02635],[151.455993,-32.024947],[151.456256,-32.0244],[151.456652,-32.024143],[151.457864,-32.023878],[151.458036,-32.023673],[151.458261,-32.0229],[151.458218,-32.021673],[151.458416,-32.021215],[151.45975,-32.019373],[151.459917,-32.018861],[151.459813,-32.018084],[151.459163,-32.017715],[151.458395,-32.017462],[151.456609,-32.017242],[151.455258,-32.016964]]]},"properties":{"OBJECTID":24,"FireType":2,"FireName":"","FireNo":"77/160","FireYear":197778,"Label":"1977-78 Prescribed Burn","StartDate":null,"EndDate":null,"Intensity":null,"AreaHa":109.34645402,"PerimeterM":4298.14943874,"OFHObjMet":null,"ObjNotMet":null,"NPWSBranch":"HCCO","NPWSArea":"BARR","VerDate":1788739200000,"Shape.STArea()":0.00010438337862670991,"Shape.STLength()":0.04228093899490575}},{"type":"Feature","id":35,"geometry":{"type":"Polygon","coordinates":[[[151.461258,-32.026662],[151.460996,-32.027119],[151.460965,-32.02775],[151.460369,-32.029177],[151.460407,-32.030693],[151.460674,-32.03121],[151.461115,-32.031405],[151.464382,-32.031706],[151.466706,-32.032068],[151.469701,-32.031518],[151.470443,-32.031491],[151.470677,-32.03143],[151.470774,-32.031314],[151.470097,-32.030657],[151.469318,-32.029096],[151.468644,-32.028871],[151.468041,-32.02881],[151.467294,-32.028557],[151.466079,-32.027758],[151.465572,-32.027679],[151.465,-32.027708],[151.46443,-32.027566],[151.463895,-32.02728],[151.46348,-32.02677],[151.463145,-32.02654],[151.462041,-32.026689],[151.461258,-32.026662]]]},"properties":{"OBJECTID":35,"FireType":2,"FireName":"","FireNo":"78/160","FireYear":197879,"Label":"1978-79 Prescribed Burn","StartDate":null,"EndDate":null,"Intensity":null,"AreaHa":38.82635184,"PerimeterM":2646.31896924,"OFHObjMet":null,"ObjNotMet":null,"NPWSBranch":"HCCO","NPWSArea":"BARR","VerDate":1788739200000,"Shape.STArea()":3.706673533000576e-05,"Shape.STLength()":0.026614029443690644}},{"type":"Feature","id":40,"geometry":{"type":"Polygon","coordinates":[[[151.444839,-32.030863],[151.444205,-32.031415],[151.4438,-32.031527],[151.44171,-32.031763],[151.443362,-32.032388],[151.443906,-32.032782],[151.444424,-32.036009],[151.445342,-32.036832],[151.445571,-32.037656],[151.445948,-32.038544],[151.446453,-32.038767],[151.447464,-32.03905],[151.448544,-32.039054],[151.449923,-32.038927],[151.450663,-32.039017],[151.451479,-32.03964],[151.452457,-32.040662],[151.453271,-32.041376],[151.455361,-32.043025],[151.45641,-32.044247],[151.457286,-32.04442],[151.458028,-32.04442],[151.458763,-32.044131],[151.459437,-32.043751],[151.460072,-32.043155],[151.460312,-32.042724],[151.460477,-32.041725],[151.460643,-32.041267],[151.460539,-32.040553],[151.4602,-32.0399],[151.459889,-32.039526],[151.45928,-32.039212],[151.458811,-32.038728],[151.458304,-32.037423],[151.45769,-32.036766],[151.457216,-32.036625],[151.45486,-32.03629],[151.452338,-32.035781],[151.452129,-32.03558],[151.451961,-32.034901],[151.450575,-32.033531],[151.449493,-32.033049],[151.448382,-32.032368],[151.447635,-32.032052],[151.445716,-32.031605],[151.445108,-32.031236],[151.444839,-32.030863]]]},"properties":{"OBJECTID":40,"FireType":2,"FireName":"","FireNo":"79/161","FireYear":197980,"Label":"1979-80 Prescribed Burn","StartDate":null,"EndDate":null,"Intensity":null,"AreaHa":104.64959457,"PerimeterM":5169.26693967,"OFHObjMet":null,"ObjNotMet":null,"NPWSBranch":"HCCO","NPWSArea":"BARR","VerDate":1788739200000,"Shape.STArea()":9.991550249500265e-05,"Shape.STLength()":0.05124713847635092}},{"type":"Feature","id":41,"geometry":{"type":"Polygon","coordinates":[[[151.458391,-32.021485],[151.458123,-32.02169],[151.458133,-32.022943],[151.458034,-32.023826],[151.458546,-32.024852],[151.459593,-32.025568],[151.460468,-32.026445],[151.461173,-32.026697],[151.46239,-32.02673],[151.462965,-32.026556],[151.463427,-32.026751],[151.463978,-32.027407],[151.464578,-32.027604],[151.465961,-32.027828],[151.466434,-32.028023],[151.467587,-32.028768],[151.468866,-32.028901],[151.469543,-32.029558],[151.469877,-32.030474],[151.470186,-32.030982],[151.470626,-32.031267],[151.470624,-32.031412],[151.46951,-32.031524],[151.470323,-32.031697],[151.470488,-32.031951],[151.471338,-32.03244],[151.471941,-32.03306],[151.472424,-32.033977],[151.473234,-32.034943],[151.473206,-32.03534],[151.472862,-32.035633],[151.472934,-32.035769],[151.473102,-32.035852],[151.473069,-32.035969],[151.472463,-32.036061],[151.472463,-32.036115],[151.472768,-32.036227],[151.473539,-32.036309],[151.475121,-32.036111],[151.476166,-32.036304],[151.476911,-32.03607],[151.476833,-32.035645],[151.476668,-32.03539],[151.475998,-32.034931],[151.474436,-32.032684],[151.475176,-32.032134],[151.475914,-32.032305],[151.476525,-32.033133],[151.476834,-32.033705],[151.477404,-32.033784],[151.478172,-32.033469],[151.479447,-32.031897],[151.479579,-32.03161],[151.47955,-32.031465],[151.479339,-32.031381],[151.478902,-32.030952],[151.477823,-32.03019],[151.476041,-32.031017],[151.475469,-32.031082],[151.474894,-32.030597],[151.474691,-32.030081],[151.474181,-32.029569],[151.472809,-32.031203],[151.47234,-32.031405],[151.471564,-32.031549],[151.471395,-32.03152],[151.471471,-32.03144],[151.470989,-32.031127],[151.471159,-32.030435],[151.471256,-32.029038],[151.47148,-32.028319],[151.471621,-32.028149],[151.471619,-32.027635],[151.471415,-32.027127],[151.469696,-32.026755],[151.469453,-32.026671],[151.468984,-32.02625],[151.467802,-32.025992],[151.467966,-32.025083],[151.46827,-32.024618],[151.469078,-32.023789],[151.469473,-32.022964],[151.469871,-32.021931],[151.470001,-32.021103],[151.469863,-32.020479],[151.468778,-32.01951],[151.468484,-32.019371],[151.467102,-32.019083],[151.465685,-32.018317],[151.464605,-32.018349],[151.463999,-32.018523],[151.463665,-32.01887],[151.463466,-32.019355],[151.463531,-32.019897],[151.463977,-32.02112],[151.463847,-32.021921],[151.463609,-32.022234],[151.462271,-32.022471],[151.461763,-32.022419],[151.458391,-32.021485]]]},"properties":{"OBJECTID":41,"FireType":2,"FireName":"","FireNo":"79/161","FireYear":197980,"Label":"1979-80 Prescribed Burn","StartDate":null,"EndDate":null,"Intensity":null,"AreaHa":115.11787901,"PerimeterM":8536.39033929,"OFHObjMet":null,"ObjNotMet":null,"NPWSBranch":"HCCO","NPWSArea":"BARR","VerDate":1788739200000,"Shape.STArea()":0.00010989685248523546,"Shape.STLength()":0.08406929846730704}},{"type":"Feature","id":282,"geometry":{"type":"Polygon","coordinates":[[[151.470366,-32.054573],[151.470864,-32.055174],[151.471306,-32.055342],[151.471574,-32.055174],[151.474576,-32.055516],[151.476327,-32.05597],[151.477199,-32.056378],[151.477779,-32.05652],[151.477977,-32.056721],[151.478314,-32.05686],[151.479329,-32.055691],[151.479466,-32.055061],[151.479023,-32.053685],[151.478248,-32.052521],[151.478419,-32.051801],[151.478822,-32.051743],[151.480036,-32.052028],[151.48074,-32.052316],[151.482222,-32.053687],[151.482829,-32.054091],[151.483198,-32.054204],[151.483573,-32.053974],[151.484453,-32.053894],[151.484584,-32.053634],[151.484586,-32.053517],[151.484318,-32.053117],[151.48411,-32.05223],[151.483674,-32.051693],[151.483639,-32.051259],[151.484114,-32.051346],[151.484384,-32.051034],[151.484755,-32.051002],[151.485495,-32.051092],[151.486237,-32.051065],[151.486846,-32.051352],[151.487212,-32.051663],[151.488259,-32.051775],[151.48879,-32.051637],[151.489335,-32.051346],[151.489643,-32.051322],[151.49021,-32.051609],[151.490815,-32.052202],[151.493039,-32.052806],[151.493719,-32.053373],[151.494119,-32.053522],[151.494256,-32.052893],[151.494288,-32.052261],[151.493882,-32.051833],[151.493041,-32.051435],[151.491183,-32.051034],[151.490141,-32.050634],[151.489437,-32.050291],[151.489297,-32.049803],[151.489565,-32.049607],[151.489905,-32.049575],[151.493443,-32.050177],[151.49449,-32.050234],[151.495164,-32.049836],[151.495264,-32.049522],[151.495062,-32.048978],[151.49476,-32.048632],[151.494525,-32.048124],[151.494461,-32.047519],[151.493002,-32.04669],[151.49206,-32.046633],[151.491253,-32.046804],[151.48971,-32.048518],[151.488865,-32.049031],[151.486871,-32.049178],[151.486232,-32.048801],[151.4859,-32.048373],[151.484823,-32.047548],[151.484042,-32.046718],[151.483881,-32.046202],[151.483842,-32.045381],[151.483541,-32.045007],[151.482963,-32.044694],[151.482598,-32.044374],[151.482156,-32.044233],[151.481245,-32.044204],[151.480571,-32.044629],[151.480739,-32.045343],[151.480708,-32.045975],[151.48024,-32.046691],[151.479997,-32.047346],[151.479297,-32.048032],[151.478624,-32.048349],[151.478211,-32.048344],[151.477637,-32.048463],[151.477267,-32.048432],[151.476628,-32.048659],[151.475822,-32.048748],[151.475482,-32.049457],[151.475726,-32.050028],[151.475689,-32.050343],[151.475349,-32.051061],[151.474511,-32.051772],[151.473699,-32.052232],[151.473159,-32.052856],[151.472659,-32.053599],[151.470366,-32.054573]]]},"properties":{"OBJECTID":282,"FireType":2,"FireName":"","FireNo":"87/165","FireYear":198788,"Label":"1987-88 Prescribed Burn","StartDate":null,"EndDate":null,"Intensity":null,"AreaHa":118.17022733,"PerimeterM":8576.51879187,"OFHObjMet":null,"ObjNotMet":null,"NPWSBranch":"HCCO","NPWSArea":"BARR","VerDate":1788739200000,"Shape.STArea()":0.0001128400773839728,"Shape.STLength()":0.08543999859758161}},{"type":"Feature","id":14589,"geometry":{"type":"Polygon","coordinates":[[[151.467134,-32.028582],[151.467114,-32.028519],[151.466924,-32.028498],[151.466591,-32.028801],[151.466427,-32.029097],[151.46632,-32.029781],[151.466081,-32.030166],[151.465673,-32.030513],[151.46482,-32.030845],[151.464103,-32.031324],[151.463616,-32.031931],[151.463502,-32.032399],[151.463546,-32.032941],[151.463831,-32.033648],[151.464258,-32.034077],[151.464647,-32.034253],[151.465061,-32.034204],[151.465777,-32.033789],[151.466425,-32.033652],[151.466652,-32.034025],[151.466487,-32.034374],[151.465927,-32.034981],[151.465716,-32.03552],[151.465719,-32.036016],[151.466146,-32.037067],[151.466501,-32.037387],[151.466851,-32.03731],[151.469539,-32.036188],[151.472169,-32.035922],[151.472724,-32.035695],[151.473142,-32.035357],[151.473843,-32.034635],[151.474084,-32.034123],[151.474068,-32.033826],[151.473872,-32.033471],[151.472186,-32.033],[151.471548,-32.032532],[151.470641,-32.032296],[151.470369,-32.03213],[151.470308,-32.031949],[151.470489,-32.031879],[151.470643,-32.031547],[151.470879,-32.031343],[151.470938,-32.031028],[151.470805,-32.030737],[151.470107,-32.030034],[151.469682,-32.029479],[151.469232,-32.029158],[151.468884,-32.029072],[151.467699,-32.029022],[151.46733,-32.0289],[151.467174,-32.028745],[151.467134,-32.028582]]]},"properties":{"OBJECTID":14589,"FireType":1,"FireName":"","FireNo":"","FireYear":198687,"Label":"1986-87 Wildfire","StartDate":null,"EndDate":null,"Intensity":null,"AreaHa":52.97258269,"PerimeterM":3420.92960054,"OFHObjMet":null,"ObjNotMet":null,"NPWSBranch":"HCCO","NPWSArea":"BARR","VerDate":1788739200000,"Shape.STArea()":5.057373071127364e-05,"Shape.STLength()":0.033762980628296364}},{"type":"Feature","id":22863,"geometry":{"type":"Polygon","coordinates":[[[151.372779,-31.963767],[151.372039,-31.963623],[151.371351,-31.963371],[151.370626,-31.963295],[151.369792,-31.963483],[151.368664,-31.96357],[151.368088,-31.963793],[151.367682,-31.964126],[151.36736,-31.963811],[151.367246,-31.96305],[151.366304,-31.962369],[151.365596,-31.961726],[151.363343,-31.961093],[151.362757,-31.960759],[151.362017,-31.96047],[151.361145,-31.960397],[151.360652,-31.960468],[151.359528,-31.960283],[151.357327,-31.96027],[151.356119,-31.959634],[151.355476,-31.959476],[151.354209,-31.95964],[151.352954,-31.960681],[151.352092,-31.96104],[151.351144,-31.961182],[151.350182,-31.961015],[151.348627,-31.960609],[151.348109,-31.960611],[151.347116,-31.960796],[151.347474,-31.961233],[151.348108,-31.961322],[151.348352,-31.961637],[151.34765,-31.962022],[151.347093,-31.963093],[151.346733,-31.963569],[151.34571,-31.96408],[151.345437,-31.964375],[151.346121,-31.96469],[151.348237,-31.964473],[151.349042,-31.964314],[151.349836,-31.964403],[151.34983,-31.964915],[151.349613,-31.965144],[151.349724,-31.965897],[151.350285,-31.966332],[151.350775,-31.967144],[151.352029,-31.967333],[151.352516,-31.967705],[151.353598,-31.968853],[151.354278,-31.969035],[151.355624,-31.96906],[151.356022,-31.969777],[151.356212,-31.970295],[151.357029,-31.97065],[151.35755,-31.971093],[151.357706,-31.972593],[151.357803,-31.972969],[151.358053,-31.973421],[151.358626,-31.973598],[151.359514,-31.973383],[151.3598,-31.97354],[151.359767,-31.974313],[151.360119,-31.974685],[151.360824,-31.974684],[151.36121,-31.974813],[151.361428,-31.975142],[151.361615,-31.975871],[151.36205,-31.976215],[151.362891,-31.976223],[151.363542,-31.976085],[151.364783,-31.976212],[151.369466,-31.977108],[151.370552,-31.977748],[151.372953,-31.980112],[151.373942,-31.98011],[151.375192,-31.980352],[151.376275,-31.981497],[151.377621,-31.982389],[151.379043,-31.982481],[151.379866,-31.98301],[151.381795,-31.983867],[151.382486,-31.984539],[151.383597,-31.985443],[151.38433,-31.985754],[151.385294,-31.98651],[151.385473,-31.987385],[151.386329,-31.988043],[151.387705,-31.988757],[151.388662,-31.989443],[151.389249,-31.989714],[151.390838,-31.990227],[151.392621,-31.990383],[151.394871,-31.991554],[151.395359,-31.992213],[151.396701,-31.993256],[151.397121,-31.993355],[151.397892,-31.992953],[151.398847,-31.992794],[151.399492,-31.993171],[151.400718,-31.994269],[151.401498,-31.995083],[151.402122,-31.995195],[151.403482,-31.996296],[151.403897,-31.996973],[151.404855,-31.997603],[151.406235,-31.997681],[151.407824,-31.997261],[151.408597,-31.998094],[151.408979,-31.999439],[151.409266,-31.999667],[151.409269,-32.000511],[151.408884,-32.000999],[151.408702,-32.001729],[151.408392,-32.002257],[151.409092,-32.002887],[151.409784,-32.003801],[151.409588,-32.005261],[151.409853,-32.00673],[151.409545,-32.007622],[151.409499,-32.008395],[151.410006,-32.00928],[151.410663,-32.009937],[151.410582,-32.010773],[151.411405,-32.010736],[151.412549,-32.011162],[151.413637,-32.011806],[151.414306,-32.013719],[151.414871,-32.014402],[151.417126,-32.016532],[151.41888,-32.018401],[151.420652,-32.021721],[151.422013,-32.023853],[151.422769,-32.023802],[151.42497,-32.024038],[151.425818,-32.023805],[151.4263,-32.023368],[151.426338,-32.022565],[151.426115,-32.021774],[151.426069,-32.020831],[151.426257,-32.020055],[151.426628,-32.019258],[151.427791,-32.018131],[151.428443,-32.017942],[151.428916,-32.017919],[151.430369,-32.018087],[151.431673,-32.018404],[151.432619,-32.018518],[151.433709,-32.018068],[151.43468,-32.017778],[151.436764,-32.017626],[151.437601,-32.017407],[151.437981,-32.017159],[151.437696,-32.0168],[151.437195,-32.016593],[151.43651,-32.016043],[151.436378,-32.015831],[151.436377,-32.015644],[151.437014,-32.014613],[151.437164,-32.014033],[151.437057,-32.013287],[151.437459,-32.012751],[151.437571,-32.012257],[151.438036,-32.012147],[151.438911,-32.012192],[151.439812,-32.012127],[151.44093,-32.011654],[151.441884,-32.011354],[151.442419,-32.01098],[151.442855,-32.010339],[151.44295,-32.009999],[151.442896,-32.009301],[151.443291,-32.009254],[151.443484,-32.009139],[151.443265,-32.008819],[151.442372,-32.008095],[151.442263,-32.007762],[151.442348,-32.007424],[151.442916,-32.006684],[151.442881,-32.00623],[151.442525,-32.005781],[151.442278,-32.004818],[151.442535,-32.003379],[151.444066,-32.002127],[151.444671,-32.001755],[151.44571,-32.001445],[151.446681,-32.000969],[151.447115,-32.000408],[151.448971,-31.999221],[151.449322,-31.998727],[151.449415,-31.997693],[151.449281,-31.996595],[151.44961,-31.996016],[151.449051,-31.995605],[151.448359,-31.995474],[151.447718,-31.995525],[151.446551,-31.994553],[151.446139,-31.994054],[151.446008,-31.993547],[151.446828,-31.992233],[151.448677,-31.990149],[151.449277,-31.988922],[151.449762,-31.988275],[151.449947,-31.987577],[151.449732,-31.987163],[151.449698,-31.985933],[151.449494,-31.985219],[151.449674,-31.983446],[151.450349,-31.98068],[151.450827,-31.979307],[151.451524,-31.978436],[151.448321,-31.976604],[151.443984,-31.974993],[151.442407,-31.974586],[151.440594,-31.974958],[151.438268,-31.974974],[151.437325,-31.974243],[151.43703,-31.973087],[151.436547,-31.972009],[151.436413,-31.970774],[151.434225,-31.969517],[151.432184,-31.969048],[151.430665,-31.967655],[151.427932,-31.965671],[151.425775,-31.962922],[151.424978,-31.962386],[151.423281,-31.963161],[151.421533,-31.963533],[151.419673,-31.9627],[151.413607,-31.958902],[151.412464,-31.956639],[151.409413,-31.954399],[151.409238,-31.95387],[151.407703,-31.953828],[151.405939,-31.954051],[151.404992,-31.954329],[151.403749,-31.954019],[151.402262,-31.954126],[151.399663,-31.955],[151.398399,-31.954579],[151.397232,-31.953952],[151.394807,-31.952438],[151.394457,-31.953207],[151.39449,-31.954544],[151.395165,-31.956491],[151.396622,-31.958484],[151.397438,-31.959186],[151.397155,-31.960096],[151.397023,-31.961281],[151.396156,-31.962152],[151.394317,-31.962913],[151.393726,-31.962808],[151.393034,-31.962918],[151.392359,-31.962273],[151.391845,-31.961653],[151.391257,-31.961548],[151.390306,-31.961882],[151.389547,-31.961964],[151.388807,-31.961572],[151.38788,-31.96083],[151.386259,-31.960535],[151.385126,-31.960025],[151.38446,-31.959518],[151.384293,-31.958707],[151.381905,-31.957156],[151.380698,-31.956624],[151.379618,-31.956303],[151.378421,-31.956594],[151.378261,-31.956052],[151.377253,-31.956557],[151.376017,-31.956935],[151.374805,-31.957193],[151.373505,-31.957715],[151.372858,-31.958183],[151.37251,-31.959031],[151.373208,-31.961091],[151.37314,-31.962381],[151.372779,-31.963767]]]},"properties":{"OBJECTID":22863,"FireType":2,"FireName":"Middle Ridge","FireNo":"HR09061938917","FireYear":200910,"Label":"2009-10 Prescribed Burn","StartDate":1274054400000,"EndDate":null,"Intensity":null,"AreaHa":3501.59251013,"PerimeterM":33545.77908846,"OFHObjMet":null,"ObjNotMet":null,"NPWSBranch":"HCCO","NPWSArea":"BARR","VerDate":1788739200000,"Shape.STArea()":0.00334122167575824,"Shape.STLength()":0.3319004978629806}},{"type":"Feature","id":22908,"geometry":{"type":"Polygon","coordinates":[[[151.447858,-31.998169],[151.449868,-31.995094],[151.453801,-31.994109],[151.454652,-31.993404],[151.455832,-31.991744],[151.457426,-31.989226],[151.457819,-31.988039],[151.456073,-31.986508],[151.451336,-31.985417],[151.447335,-31.984971],[151.4463,-31.985515],[151.447461,-31.988549],[151.447073,-31.989418],[151.442974,-31.989209],[151.439972,-31.990284],[151.438357,-31.992092],[151.43489,-31.993082],[151.433121,-31.992902],[151.428714,-31.994357],[151.423751,-31.995567],[151.421127,-31.996329],[151.419733,-31.996073],[151.418222,-31.997167],[151.414575,-31.997757],[151.413731,-31.998064],[151.407868,-31.997355],[151.407382,-31.998541],[151.40936,-32.002777],[151.411842,-32.004875],[151.416672,-32.005968],[151.418146,-32.007019],[151.421137,-32.006659],[151.423842,-32.006614],[151.426067,-32.007356],[151.427727,-32.00849],[151.427986,-32.009685],[151.427696,-32.010317],[151.427035,-32.010785],[151.425823,-32.01077],[151.425447,-32.010925],[151.424044,-32.011146],[151.423575,-32.011299],[151.422501,-32.014146],[151.420819,-32.014284],[151.419515,-32.014188],[151.417918,-32.014884],[151.418174,-32.016238],[151.417878,-32.017188],[151.417119,-32.017973],[151.416716,-32.019716],[151.416681,-32.021702],[151.415724,-32.023121],[151.416628,-32.024801],[151.41877,-32.024986],[151.420846,-32.023582],[151.424667,-32.023788],[151.425888,-32.023327],[151.425564,-32.020462],[151.425577,-32.019667],[151.427668,-32.017389],[151.430464,-32.017503],[151.432321,-32.018003],[151.437275,-32.017443],[151.438397,-32.017204],[151.436644,-32.016069],[151.436873,-32.013609],[151.437173,-32.012421],[151.438578,-32.012041],[151.440444,-32.011984],[151.44281,-32.010454],[151.44281,-32.009947],[151.443009,-32.009234],[151.443366,-32.008928],[151.442007,-32.007792],[151.442686,-32.00629],[151.442237,-32.005252],[151.44236,-32.003505],[151.444916,-32.001232],[151.444287,-31.999794],[151.44496,-31.99861],[151.446084,-31.998306],[151.447858,-31.998169]]]},"properties":{"OBJECTID":22908,"FireType":1,"FireName":"Mistake Ridge","FireNo":"HN47","FireYear":200910,"Label":"2009-10 Wildfire","StartDate":1264550400000,"EndDate":1265587200000,"Intensity":null,"AreaHa":805.44644302,"PerimeterM":18094.00205045,"OFHObjMet":null,"ObjNotMet":null,"NPWSBranch":"HCCO","NPWSArea":"BARR","VerDate":1788739200000,"Shape.STArea()":0.0007687261895042462,"Shape.STLength()":0.18064033736274787}},{"type":"Feature","id":22944,"geometry":{"type":"MultiPolygon","coordinates":[[[[151.406043,-32.03534],[151.40632,-32.035142],[151.408795,-32.034254],[151.409835,-32.033693],[151.410275,-32.033245],[151.411736,-32.031385],[151.41342,-32.03055],[151.413941,-32.029853],[151.4147,-32.029237],[151.415573,-32.028676],[151.41661,-32.028216],[151.417784,-32.027523],[151.419075,-32.025834],[151.41985,-32.024237],[151.420695,-32.023782],[151.422938,-32.023805],[151.42497,-32.024038],[151.426058,-32.023705],[151.4263,-32.023368],[151.426326,-32.022502],[151.426049,-32.02126],[151.426233,-32.020263],[151.426628,-32.019258],[151.427791,-32.018131],[151.428916,-32.017919],[151.42949,-32.017923],[151.432147,-32.018487],[151.432987,-32.018427],[151.434165,-32.017915],[151.436764,-32.017626],[151.437912,-32.017283],[151.437696,-32.0168],[151.437058,-32.016551],[151.43651,-32.016043],[151.436377,-32.015644],[151.437159,-32.014323],[151.437057,-32.013287],[151.437802,-32.012178],[151.439314,-32.012188],[151.440278,-32.011971],[151.442125,-32.011215],[151.44281,-32.010454],[151.442837,-32.009544],[151.443009,-32.009246],[151.443484,-32.009027],[151.442409,-32.008148],[151.442263,-32.007762],[151.442605,-32.007094],[151.442881,-32.00623],[151.442242,-32.005286],[151.442273,-32.004566],[151.44242,-32.003824],[151.442646,-32.003253],[151.444066,-32.002127],[151.444671,-32.001755],[151.44603,-32.001299],[151.44684,-32.0008],[151.446992,-32.000556],[151.447879,-31.999892],[151.448971,-31.999221],[151.449322,-31.998727],[151.449415,-31.997693],[151.449332,-31.997147],[151.44961,-31.996016],[151.449051,-31.995605],[151.447977,-31.995563],[151.447424,-31.995301],[151.446551,-31.994553],[151.446109,-31.993618],[151.446574,-31.992692],[151.448917,-31.989671],[151.449277,-31.988922],[151.449919,-31.98796],[151.449905,-31.987487],[151.449494,-31.985219],[151.449574,-31.984396],[151.448018,-31.984104],[151.446876,-31.983419],[151.446455,-31.982804],[151.445777,-31.984034],[151.445891,-31.985235],[151.446343,-31.986211],[151.447321,-31.987672],[151.447524,-31.988588],[151.443484,-31.989598],[151.440963,-31.990965],[151.439864,-31.991894],[151.439244,-31.992629],[151.438176,-31.993503],[151.437444,-31.993991],[151.43663,-31.993733],[151.436497,-31.992805],[151.429681,-31.992802],[151.428136,-31.993011],[151.426174,-31.994072],[151.424376,-31.994315],[151.424011,-31.995286],[151.423419,-31.995926],[151.422668,-31.995951],[151.421444,-31.996125],[151.420421,-31.996456],[151.418712,-31.997203],[151.417522,-31.997549],[151.416433,-31.997995],[151.415275,-31.99781],[151.413703,-31.997166],[151.413111,-31.997413],[151.412374,-31.997915],[151.411552,-31.998203],[151.409405,-31.998192],[151.408597,-31.998094],[151.408794,-31.999182],[151.409269,-32.000511],[151.408392,-32.002257],[151.409092,-32.002887],[151.409895,-32.004538],[151.410871,-32.005202],[151.412581,-32.005272],[151.413434,-32.004893],[151.414993,-32.005183],[151.416334,-32.0052],[151.417538,-32.005329],[151.418336,-32.005682],[151.42034,-32.006049],[151.422024,-32.005556],[151.423302,-32.005286],[151.424642,-32.005303],[151.426187,-32.005094],[151.426664,-32.004643],[151.427606,-32.004426],[151.428609,-32.004553],[151.428813,-32.005722],[151.430559,-32.005793],[151.430646,-32.006919],[151.43036,-32.008001],[151.430334,-32.009485],[151.429915,-32.010508],[151.429828,-32.011649],[151.429109,-32.013334],[151.427107,-32.012753],[151.42603,-32.012355],[151.425036,-32.013646],[151.423769,-32.014479],[151.422596,-32.015214],[151.421456,-32.015257],[151.420822,-32.017435],[151.420187,-32.018896],[151.419024,-32.020252],[151.418213,-32.020705],[151.418926,-32.022022],[151.419147,-32.023464],[151.418347,-32.024527],[151.413137,-32.027374],[151.410149,-32.029564],[151.406613,-32.032489],[151.40661,-32.032661],[151.405984,-32.033966],[151.406043,-32.03534]]],[[[151.405739,-32.035559],[151.406043,-32.035344],[151.406043,-32.03534],[151.405739,-32.035559]]]]},"properties":{"OBJECTID":22944,"FireType":1,"FireName":"Moonan Brook","FireNo":"HN32","FireYear":200910,"Label":"2009-10 Wildfire","StartDate":1257120000000,"EndDate":1257984000000,"Intensity":null,"AreaHa":713.50773652,"PerimeterM":21894.39914297,"OFHObjMet":null,"ObjNotMet":null,"NPWSBranch":"HCCO","NPWSArea":"BARR","VerDate":1788739200000,"Shape.STArea()":0.0006809921393544423,"Shape.STLength()":0.2162643573190357}},{"type":"Feature","id":32221,"geometry":{"type":"MultiPolygon","coordinates":[[[[151.431918,-31.998718],[151.432423,-31.997598],[151.433631,-31.991984],[151.433112,-31.989844],[151.432993,-31.988657],[151.432446,-31.988117],[151.431835,-31.987221],[151.431502,-31.986387],[151.430322,-31.986254],[151.428995,-31.986593],[151.427314,-31.987343],[151.425975,-31.988393],[151.42568,-31.989337],[151.425795,-31.990761],[151.426667,-31.992668],[151.427213,-31.993267],[151.427198,-31.994097],[151.426901,-31.995219],[151.426805,-31.996759],[151.425881,-31.997932],[151.425291,-31.999139],[151.42465,-31.998793],[151.424367,-31.998539],[151.424055,-31.998134],[151.423567,-31.997097],[151.423386,-31.996891],[151.422696,-31.996335],[151.422032,-31.995968],[151.421775,-31.995912],[151.421518,-31.995932],[151.421074,-31.99611],[151.419864,-31.996809],[151.419241,-31.997076],[151.417943,-31.9974],[151.417198,-31.997261],[151.416198,-31.996519],[151.415563,-31.996345],[151.415065,-31.996376],[151.41435,-31.996651],[151.41289,-31.997545],[151.410902,-31.999075],[151.410268,-31.99966],[151.409424,-32.000713],[151.409265,-32.001337],[151.40937,-32.001938],[151.409846,-32.00344],[151.409877,-32.003795],[151.409601,-32.00577],[151.409568,-32.008328],[151.409665,-32.008626],[151.409948,-32.009001],[151.411151,-32.009737],[151.411291,-32.00995],[151.411307,-32.010215],[151.410416,-32.011476],[151.409106,-32.014327],[151.409165,-32.015157],[151.408949,-32.015999],[151.408979,-32.016875],[151.408824,-32.017813],[151.408947,-32.018409],[151.408866,-32.018762],[151.408714,-32.018952],[151.408966,-32.018931],[151.408816,-32.019346],[151.40829,-32.019732],[151.407853,-32.020729],[151.407488,-32.022371],[151.407594,-32.022481],[151.405157,-32.028755],[151.404458,-32.029173],[151.403863,-32.029765],[151.403456,-32.030413],[151.40294,-32.030786],[151.402388,-32.031026],[151.401991,-32.031712],[151.399995,-32.031784],[151.399138,-32.031731],[151.398994,-32.031635],[151.399085,-32.031173],[151.399468,-32.030607],[151.399384,-32.030174],[151.398912,-32.029707],[151.398331,-32.02969],[151.398019,-32.029923],[151.397296,-32.028956],[151.395579,-32.028271],[151.394028,-32.029589],[151.394004,-32.030095],[151.393523,-32.030123],[151.393226,-32.030027],[151.392758,-32.029534],[151.392615,-32.029198],[151.392624,-32.028625],[151.392824,-32.028131],[151.393263,-32.027499],[151.393507,-32.027601],[151.393673,-32.027332],[151.393437,-32.027048],[151.39344,-32.026835],[151.393206,-32.026196],[151.393764,-32.024159],[151.394449,-32.023404],[151.395693,-32.022752],[151.395829,-32.021417],[151.395633,-32.019791],[151.395201,-32.018386],[151.395435,-32.018397],[151.393163,-32.010822],[151.392367,-32.010237],[151.391589,-32.009823],[151.390673,-32.009675],[151.390137,-32.009794],[151.389781,-32.010136],[151.389642,-32.010427],[151.389717,-32.011661],[151.39001,-32.012465],[151.390164,-32.012661],[151.391031,-32.013323],[151.391376,-32.013864],[151.391511,-32.014802],[151.391462,-32.015723],[151.39207,-32.016649],[151.392285,-32.017128],[151.392451,-32.017792],[151.392516,-32.018606],[151.392886,-32.019655],[151.392999,-32.020288],[151.392953,-32.019773],[151.393162,-32.020142],[151.392914,-32.021475],[151.392224,-32.022517],[151.391324,-32.022696],[151.390437,-32.02202],[151.390302,-32.021834],[151.389384,-32.020349],[151.389361,-32.019855],[151.388888,-32.018782],[151.388153,-32.0177],[151.387623,-32.017267],[151.385326,-32.016049],[151.382005,-32.014861],[151.380329,-32.014553],[151.379574,-32.01432],[151.378333,-32.013723],[151.377963,-32.013137],[151.377409,-32.011404],[151.377111,-32.011079],[151.376644,-32.010847],[151.37602,-32.010731],[151.374485,-32.010924],[151.373699,-32.010904],[151.37279,-32.010686],[151.371,-32.010091],[151.370487,-32.010162],[151.369985,-32.010538],[151.369463,-32.010473],[151.368681,-32.010233],[151.368244,-32.009938],[151.366988,-32.00848],[151.36665,-32.008248],[151.366131,-32.008093],[151.36589,-32.00851],[151.365784,-32.008887],[151.365799,-32.009274],[151.366179,-32.010482],[151.367009,-32.011702],[151.367934,-32.012328],[151.369981,-32.013137],[151.370839,-32.013623],[151.371657,-32.014474],[151.373288,-32.015797],[151.374101,-32.016822],[151.374474,-32.017504],[151.374328,-32.017801],[151.373449,-32.018591],[151.373147,-32.019052],[151.37293,-32.019046],[151.372628,-32.019421],[151.372835,-32.02032],[151.372756,-32.021028],[151.372829,-32.021491],[151.372192,-32.021406],[151.371467,-32.021129],[151.370675,-32.020945],[151.369426,-32.020868],[151.367441,-32.021],[151.366127,-32.020319],[151.364774,-32.020307],[151.363681,-32.020497],[151.362721,-32.021228],[151.364201,-32.022388],[151.365154,-32.02296],[151.36599,-32.023324],[151.366963,-32.023593],[151.367404,-32.02388],[151.36782,-32.02438],[151.368036,-32.024487],[151.368266,-32.02487],[151.368983,-32.025357],[151.371483,-32.026542],[151.372536,-32.027529],[151.373558,-32.029228],[151.374002,-32.029664],[151.374672,-32.03059],[151.375054,-32.031648],[151.37546,-32.032303],[151.375697,-32.03328],[151.375974,-32.034762],[151.376008,-32.035641],[151.376471,-32.038239],[151.376505,-32.039337],[151.376315,-32.04038],[151.376111,-32.040829],[151.375846,-32.041013],[151.375615,-32.041494],[151.374991,-32.042378],[151.374984,-32.042637],[151.375562,-32.042266],[151.375799,-32.042952],[151.375752,-32.04357],[151.37466,-32.04569],[151.373652,-32.046201],[151.372684,-32.046243],[151.371799,-32.046511],[151.370909,-32.046194],[151.369032,-32.045144],[151.368786,-32.044653],[151.368623,-32.043863],[151.368868,-32.043264],[151.369413,-32.042992],[151.37023,-32.043019],[151.370721,-32.042883],[151.371102,-32.042583],[151.371102,-32.042038],[151.370993,-32.041793],[151.370748,-32.041657],[151.370394,-32.041657],[151.369958,-32.041956],[151.368732,-32.042201],[151.368172,-32.041961],[151.368114,-32.041751],[151.367737,-32.041246],[151.366981,-32.03953],[151.366564,-32.039192],[151.366302,-32.038058],[151.366801,-32.037156],[151.367579,-32.036653],[151.367445,-32.0348],[151.367071,-32.033285],[151.366201,-32.031394],[151.365208,-32.028931],[151.364782,-32.02847],[151.364127,-32.028418],[151.363954,-32.02787],[151.363213,-32.027834],[151.36312,-32.027923],[151.362319,-32.027929],[151.36175,-32.028712],[151.361596,-32.029082],[151.361363,-32.029259],[151.361391,-32.029572],[151.361092,-32.030288],[151.36038,-32.030776],[151.359774,-32.032105],[151.359946,-32.033652],[151.359635,-32.03448],[151.35909,-32.034615],[151.358827,-32.034602],[151.358721,-32.034706],[151.35796,-32.034894],[151.357972,-32.035132],[151.35695,-32.035354],[151.356807,-32.035326],[151.356569,-32.035586],[151.356254,-32.03553],[151.355968,-32.035342],[151.355274,-32.035124],[151.354766,-32.035021],[151.354272,-32.035041],[151.353774,-32.035193],[151.352978,-32.035721],[151.352773,-32.036166],[151.352893,-32.036304],[151.352791,-32.036307],[151.352779,-32.036956],[151.352978,-32.037175],[151.353159,-32.037206],[151.353631,-32.038791],[151.352779,-32.038722],[151.352267,-32.038785],[151.351707,-32.0393],[151.348913,-32.039151],[151.347725,-32.039614],[151.347208,-32.040276],[151.345952,-32.041408],[151.345656,-32.042265],[151.345649,-32.042647],[151.345282,-32.044364],[151.344319,-32.04483],[151.344219,-32.044943],[151.342885,-32.045272],[151.341981,-32.04539],[151.339645,-32.045315],[151.338512,-32.045476],[151.337202,-32.045811],[151.336708,-32.046053],[151.336171,-32.046153],[151.335902,-32.046417],[151.33556,-32.046873],[151.334874,-32.049574],[151.335168,-32.050531],[151.336189,-32.050943],[151.336213,-32.0513],[151.335903,-32.05211],[151.335808,-32.052634],[151.33576,-32.053754],[151.337381,-32.054826],[151.338358,-32.055184],[151.338953,-32.055684],[151.341455,-32.056447],[151.342701,-32.05731],[151.34297,-32.057747],[151.34323,-32.058514],[151.342834,-32.059713],[151.342442,-32.05916],[151.342471,-32.05753],[151.341405,-32.057256],[151.340387,-32.058481],[151.339282,-32.058362],[151.338842,-32.058155],[151.338003,-32.058286],[151.338002,-32.058341],[151.337814,-32.0583],[151.336546,-32.059267],[151.33562,-32.060238],[151.334094,-32.061598],[151.334096,-32.061463],[151.330221,-32.064468],[151.329503,-32.065741],[151.328625,-32.066271],[151.328722,-32.067079],[151.327963,-32.067353],[151.325251,-32.067837],[151.323785,-32.068725],[151.323152,-32.069405],[151.323213,-32.069941],[151.323462,-32.070738],[151.323862,-32.071023],[151.324715,-32.071979],[151.328221,-32.075529],[151.328352,-32.076062],[151.329508,-32.076739],[151.33075,-32.077023],[151.332644,-32.077733],[151.333985,-32.078612],[151.335048,-32.078813],[151.337618,-32.078991],[151.33901,-32.079293],[151.338352,-32.079222],[151.337268,-32.07926],[151.338497,-32.079811],[151.339304,-32.080443],[151.339722,-32.081056],[151.338928,-32.081481],[151.337859,-32.081849],[151.337798,-32.082181],[151.338005,-32.082438],[151.339073,-32.08207],[151.339708,-32.081968],[151.340187,-32.082274],[151.341145,-32.081782],[151.341618,-32.081749],[151.341984,-32.081306],[151.342197,-32.080902],[151.34275,-32.080681],[151.342806,-32.080705],[151.342762,-32.08084],[151.343213,-32.081513],[151.343918,-32.081886],[151.344458,-32.08156],[151.345708,-32.081364],[151.346631,-32.081497],[151.347196,-32.081777],[151.348552,-32.081613],[151.34891,-32.081466],[151.349726,-32.081659],[151.351113,-32.081737],[151.35162,-32.081229],[151.351864,-32.081325],[151.352443,-32.080997],[151.353151,-32.081249],[151.354325,-32.082094],[151.354351,-32.082264],[151.355527,-32.082973],[151.355659,-32.083299],[151.354703,-32.084115],[151.354694,-32.084636],[151.354351,-32.085096],[151.35435,-32.085391],[151.353806,-32.085942],[151.353747,-32.086139],[151.352537,-32.087011],[151.351826,-32.087328],[151.351499,-32.088763],[151.351981,-32.089952],[151.353612,-32.089939],[151.35471,-32.089254],[151.355089,-32.090161],[151.355089,-32.090332],[151.354284,-32.090405],[151.353936,-32.09057],[151.354049,-32.090598],[151.353867,-32.091408],[151.353945,-32.091767],[151.354486,-32.092061],[151.355063,-32.092713],[151.355816,-32.092937],[151.356094,-32.09283],[151.356902,-32.093079],[151.357214,-32.09306],[151.35813,-32.092621],[151.358459,-32.092346],[151.357379,-32.091668],[151.357122,-32.091595],[151.357031,-32.091449],[151.356994,-32.090625],[151.356777,-32.090092],[151.356835,-32.08994],[151.356333,-32.087962],[151.356679,-32.087316],[151.356655,-32.087161],[151.357279,-32.087572],[151.357804,-32.087602],[151.359982,-32.08958],[151.360687,-32.089527],[151.361242,-32.089104],[151.361294,-32.088567],[151.361079,-32.087257],[151.358827,-32.086173],[151.357704,-32.085273],[151.358206,-32.084595],[151.35818,-32.083275],[151.35869,-32.082596],[151.359992,-32.082253],[151.361094,-32.082577],[151.361903,-32.084034],[151.362576,-32.084308],[151.362947,-32.084757],[151.363331,-32.084677],[151.363783,-32.084397],[151.364091,-32.08356],[151.364281,-32.083476],[151.365247,-32.084742],[151.365722,-32.085757],[151.365641,-32.085942],[151.365719,-32.085887],[151.365718,-32.085952],[151.365197,-32.086572],[151.365213,-32.08731],[151.3651,-32.087818],[151.365298,-32.088444],[151.365895,-32.089061],[151.366023,-32.089398],[151.366133,-32.089947],[151.36595,-32.091266],[151.366006,-32.09221],[151.366208,-32.092678],[151.366626,-32.092791],[151.367472,-32.092515],[151.367725,-32.092181],[151.368129,-32.092181],[151.368715,-32.092016],[151.368678,-32.091321],[151.36888,-32.09013],[151.368532,-32.089416],[151.368678,-32.087859],[151.368294,-32.08753],[151.367449,-32.087307],[151.36736,-32.085951],[151.367493,-32.085547],[151.367504,-32.084956],[151.367338,-32.084588],[151.367276,-32.084173],[151.367031,-32.083695],[151.366159,-32.0827],[151.366704,-32.08258],[151.368004,-32.081877],[151.367854,-32.081293],[151.367486,-32.081121],[151.369539,-32.080712],[151.369082,-32.08038],[151.369237,-32.079992],[151.368747,-32.079476],[151.368132,-32.079516],[151.368022,-32.07961],[151.36639,-32.078487],[151.373253,-32.073189],[151.374593,-32.073148],[151.375658,-32.072992],[151.376725,-32.073112],[151.377942,-32.073462],[151.378836,-32.074538],[151.379652,-32.073199],[151.380316,-32.072879],[151.381211,-32.072598],[151.382266,-32.07256],[151.384579,-32.072693],[151.385953,-32.072508],[151.386052,-32.072621],[151.387259,-32.072517],[151.388647,-32.071724],[151.389593,-32.071469],[151.391609,-32.071133],[151.393846,-32.070512],[151.395191,-32.070665],[151.396443,-32.069581],[151.397572,-32.068918],[151.39819,-32.068437],[151.399861,-32.06831],[151.400264,-32.067718],[151.400138,-32.06759],[151.400663,-32.067473],[151.400848,-32.06733],[151.40082,-32.06712],[151.400262,-32.066925],[151.399575,-32.066329],[151.399166,-32.065772],[151.399216,-32.064255],[151.399564,-32.064058],[151.399982,-32.064118],[151.401286,-32.06492],[151.401795,-32.06504],[151.402493,-32.06499],[151.403668,-32.064743],[151.404278,-32.064535],[151.405153,-32.063749],[151.405891,-32.063406],[151.406074,-32.063007],[151.405989,-32.062676],[151.405883,-32.062438],[151.40517,-32.061624],[151.405416,-32.061395],[151.405133,-32.06127],[151.405144,-32.060647],[151.405836,-32.05951],[151.407766,-32.059749],[151.409101,-32.060338],[151.410179,-32.061211],[151.411609,-32.061157],[151.412373,-32.060737],[151.412558,-32.059737],[151.412405,-32.058876],[151.411912,-32.058226],[151.410856,-32.056065],[151.40911,-32.054969],[151.408374,-32.053742],[151.408147,-32.053764],[151.408181,-32.053501],[151.407051,-32.05211],[151.406923,-32.051726],[151.406674,-32.051436],[151.405639,-32.051244],[151.405174,-32.050948],[151.405102,-32.050652],[151.405189,-32.050297],[151.405875,-32.048455],[151.406209,-32.04803],[151.40704,-32.048049],[151.407704,-32.048292],[151.408106,-32.048124],[151.408179,-32.048009],[151.409348,-32.047967],[151.413472,-32.048277],[151.414947,-32.048523],[151.414996,-32.049014],[151.414783,-32.049565],[151.414858,-32.050052],[151.415393,-32.051],[151.416073,-32.051104],[151.417568,-32.051109],[151.418243,-32.050856],[151.418841,-32.050503],[151.419196,-32.049961],[151.419737,-32.049808],[151.422459,-32.049717],[151.424807,-32.049058],[151.425862,-32.049153],[151.42602,-32.048984],[151.430428,-32.048997],[151.431145,-32.049353],[151.431786,-32.049566],[151.433247,-32.049705],[151.43369,-32.049905],[151.43231,-32.051853],[151.431267,-32.052238],[151.431007,-32.052664],[151.430568,-32.053804],[151.42996,-32.054942],[151.42961,-32.056263],[151.429337,-32.056579],[151.429666,-32.056879],[151.429746,-32.057589],[151.429399,-32.058229],[151.428376,-32.059075],[151.428032,-32.059501],[151.427757,-32.060858],[151.425958,-32.062768],[151.425537,-32.064056],[151.424719,-32.065488],[151.425007,-32.065655],[151.4254,-32.065624],[151.426326,-32.06497],[151.426677,-32.064997],[151.427594,-32.065438],[151.428598,-32.065737],[151.429107,-32.065457],[151.428736,-32.064856],[151.428723,-32.064342],[151.428971,-32.063593],[151.429052,-32.062944],[151.429806,-32.061261],[151.430621,-32.060535],[151.431566,-32.05933],[151.431762,-32.058665],[151.432658,-32.057958],[151.433732,-32.057445],[151.434963,-32.057367],[151.435647,-32.056659],[151.437164,-32.056463],[151.438504,-32.056766],[151.438913,-32.057416],[151.43967,-32.057425],[151.440273,-32.056573],[151.441207,-32.056012],[151.441884,-32.055734],[151.442242,-32.05445],[151.442594,-32.053523],[151.443461,-32.052866],[151.444132,-32.052689],[151.445301,-32.052554],[151.446798,-32.053503],[151.447567,-32.052796],[151.448836,-32.052311],[151.451039,-32.051264],[151.452313,-32.050492],[151.451239,-32.049405],[151.451005,-32.048328],[151.4512,-32.048039],[151.451923,-32.047934],[151.452686,-32.047357],[151.453031,-32.046899],[151.454248,-32.046634],[151.45757,-32.045057],[151.458832,-32.043075],[151.458904,-32.042077],[151.458074,-32.041639],[151.457181,-32.041628],[151.456105,-32.042471],[151.455025,-32.043599],[151.454009,-32.044253],[151.453053,-32.044622],[151.452,-32.044133],[151.451404,-32.04308],[151.450527,-32.04207],[151.449646,-32.041616],[151.447958,-32.041418],[151.44736,-32.041127],[151.446208,-32.039876],[151.446615,-32.03893],[151.448288,-32.039046],[151.44941,-32.038774],[151.451197,-32.038748],[151.452101,-32.038141],[151.452341,-32.037145],[151.452308,-32.035812],[151.45136,-32.032423],[151.451338,-32.030377],[151.450639,-32.028799],[151.448412,-32.028391],[151.446847,-32.028467],[151.446753,-32.028533],[151.446554,-32.028463],[151.445995,-32.028705],[151.445066,-32.029712],[151.444305,-32.030244],[151.443721,-32.030858],[151.442387,-32.031039],[151.441734,-32.029885],[151.441333,-32.028734],[151.440803,-32.026137],[151.441157,-32.02483],[151.442015,-32.023651],[151.442647,-32.022612],[151.443111,-32.021571],[151.44251,-32.020803],[151.441136,-32.019502],[151.44133,-32.017934],[151.44079,-32.016833],[151.439584,-32.015534],[151.438512,-32.016454],[151.437949,-32.016433],[151.437032,-32.016072],[151.436808,-32.015321],[151.437233,-32.012644],[151.438469,-32.012263],[151.439278,-32.012256],[151.439975,-32.012134],[151.441337,-32.011626],[151.442257,-32.011028],[151.442543,-32.010731],[151.442705,-32.010406],[151.443238,-32.00919],[151.442456,-32.008014],[151.442476,-32.007744],[151.442723,-32.007088],[151.442781,-32.006575],[151.442371,-32.005347],[151.442404,-32.004493],[151.442673,-32.003483],[151.443389,-32.002735],[151.444138,-32.002179],[151.444596,-32.001916],[151.446423,-32.001162],[151.447017,-32.000651],[151.447257,-32.000563],[151.448687,-31.999221],[151.448325,-31.999125],[151.447812,-31.999368],[151.446746,-32.000274],[151.445532,-32.000888],[151.445061,-32.000989],[151.44472,-32.000825],[151.444436,-32.000981],[151.444307,-32.001193],[151.443392,-32.001688],[151.442932,-32.002232],[151.441773,-32.002093],[151.441404,-32.002131],[151.440095,-32.002854],[151.438256,-32.003721],[151.438051,-32.003857],[151.437924,-32.004133],[151.438186,-32.00502],[151.435522,-32.006027],[151.434942,-32.004859],[151.43518,-32.003144],[151.433463,-32.001878],[151.432375,-32.000442],[151.431918,-31.998718]],[[151.343847,-32.066484],[151.343867,-32.065974],[151.344561,-32.065396],[151.344797,-32.065008],[151.345451,-32.0648],[151.345175,-32.064557],[151.345123,-32.064342],[151.345129,-32.06396],[151.345312,-32.063151],[151.346216,-32.062733],[151.346856,-32.062181],[151.347256,-32.062235],[151.347357,-32.06246],[151.34728,-32.0625],[151.347119,-32.063662],[151.347327,-32.063874],[151.346541,-32.064769],[151.346185,-32.065863],[151.345291,-32.066833],[151.343847,-32.066484]],[[151.348616,-32.076255],[151.348728,-32.075736],[151.347365,-32.074871],[151.346497,-32.073991],[151.34666,-32.073884],[151.347189,-32.072555],[151.348058,-32.072542],[151.348461,-32.073526],[151.349167,-32.0748],[151.349862,-32.075072],[151.351166,-32.075852],[151.351159,-32.076232],[151.350042,-32.076116],[151.348822,-32.076346],[151.348616,-32.076255]],[[151.363589,-32.075808],[151.365824,-32.07578],[151.366427,-32.075055],[151.367629,-32.074252],[151.367699,-32.074088],[151.367585,-32.074862],[151.366987,-32.075752],[151.366092,-32.076328],[151.365347,-32.077018],[151.365169,-32.077964],[151.365531,-32.078292],[151.363838,-32.077909],[151.363756,-32.076609],[151.363589,-32.075808]],[[151.404103,-32.048115],[151.4057,-32.048018],[151.403935,-32.049278],[151.404103,-32.048115]],[[151.343362,-32.059901],[151.34336,-32.060005],[151.344734,-32.061128],[151.344959,-32.061484],[151.34492,-32.061571],[151.344443,-32.061612],[151.34422,-32.061791],[151.344093,-32.061007],[151.343189,-32.060213],[151.342993,-32.059937],[151.343362,-32.059901]],[[151.374369,-32.046271],[151.374863,-32.04629],[151.374849,-32.046395],[151.374369,-32.046271]]],[[[151.4444,-32.001618],[151.444381,-32.00163],[151.444402,-32.001617],[151.4444,-32.001618]]]]},"properties":{"OBJECTID":32221,"FireType":1,"FireName":"Carters Rd, Stewarts Brook","FireNo":"19112359432","FireYear":201920,"Label":"2019-20 Wildfire","StartDate":1574427600000,"EndDate":1580130000000,"Intensity":9999,"AreaHa":5807.42423126,"PerimeterM":84815.08711661,"OFHObjMet":null,"ObjNotMet":null,"NPWSBranch":"HCCO","NPWSArea":"BARR","VerDate":1788739200000,"Shape.STArea()":0.005545028591928667,"Shape.STLength()":0.8282886746999152}}]}